ONEWEB-0612             
1 54675U 22166AK  23259.55147822  .00000074  00000+0  14677-3 0  9997
2 54675  87.9166  83.9954 0001307  82.7282 277.4000 13.21828460 38718
ONEWEB-0615             
1 54676U 22166AL  23259.53257331  .00000064  00000+0  12293-3 0  9994
2 54676  87.9176  84.0086 0001602  94.3453 265.7864 13.21827240 38729
ONEWEB-0655             
1 54677U 22166AM  23259.58301533 -.00003090  00000+0 -75145-2 0  9992
2 54677  87.9170  84.0075 0001637  87.9550 272.1771 13.21839355 39197
ONEWEB-0659             
1 54678U 22166AN  23259.52415718  .00000102  00000+0  21425-3 0  9990
2 54678  87.9146  84.0522 0001914  78.9492 281.1857 13.21827982 38806
ONEWEB-0685             
1 54679U 22166AP  23259.52626593  .00000081  00000+0  16367-3 0  9991
2 54679  87.9173  84.0104 0001397 121.4932 238.6339 13.21825266 38693
ONEWEB-0712             
1 54680U 22166AQ  23259.71330135 -.00042559  00000+0 -93262-1 0  9993
2 54680  87.9336  68.6518 0001944 100.8516 259.2841 13.28838038 40339
ONEWEB-0714             
1 54681U 22166AR  23259.53046424  .00000074  00000+0  14666-3 0  9996
2 54681  87.9167  84.0009 0001554  99.0316 261.0994 13.21826882 38810
ONEWEB-0532             
1 55140U 23004A   23259.91667824 -.00047563  00000+0 -11143+0 0  9993
2 55140  87.9486 205.4080 0005057  91.3736 147.6075 13.24408615 35321
